[{"OBJECT_NAME":"ZACUBE-1 (TSHEPISOSAT)","OBJECT_ID":"2013-066B","EPOCH":"2026-03-09T22:19:27.469056","MEAN_MOTION":15.00329659,"ECCENTRICITY":0.00425262,"INCLINATION":97.8171,"RA_OF_ASC_NODE":30.7553,"ARG_OF_PERICENTER":219.1599,"MEAN_ANOMALY":140.6545,"EPHEMERIS_TYPE":0,"CLASSIFICATION_TYPE":"U","NORAD_CAT_ID":39417,"ELEMENT_SET_NO":999,"REV_AT_EPOCH":66584,"BSTAR":0.00042975473,"MEAN_MOTION_DOT":5.431e-5,"MEAN_MOTION_DDOT":0},{"OBJECT_NAME":"STARLINK-3574","OBJECT_ID":"2022-022Y","EPOCH":"2026-03-09T05:07:07.872384","MEAN_MOTION":15.0884531,"ECCENTRICITY":0.00015533,"INCLINATION":53.2193,"RA_OF_ASC_NODE":11.2598,"ARG_OF_PERICENTER":100.2689,"MEAN_ANOMALY":259.8478,"EPHEMERIS_TYPE":0,"CLASSIFICATION_TYPE":"U","NORAD_CAT_ID":51874,"ELEMENT_SET_NO":999,"REV_AT_EPOCH":22303,"BSTAR":-8.6972372e-5,"MEAN_MOTION_DOT":-1.672e-5,"MEAN_MOTION_DDOT":0}]
